start=new Date('2023-05-03T00:00:00.000Z').valueOf();
sats=[{"RCS_SIZE":"LARGE","MEAN_MOTION_DOT":"0.00009354","OBJECT_ID":"2022-107Y","MEAN_MOTION":"15.08858485","OBJECT_NAME":"STARLINK-4700","MEAN_MOTION_DDOT":"0.0000000000000","MEAN_ELEMENT_THEORY":"SGP4","BSTAR":"0.00060474000000","REF_FRAME":"TEME","NORAD_CAT_ID":"53722","CLASSIFICATION_TYPE":"U","COUNTRY_CODE":"US","DECAY_DATE":null,"LAUNCH_DATE":"2022-09-05","PERIOD":"95.436","RA_OF_ASC_NODE":"251.2929","MEAN_ANOMALY":"268.4649","ARG_OF_PERICENTER":"91.6484","GP_ID":"231125067","TLE_LINE2":"2 53722  53.2156 251.2929 0001231  91.6484 268.4649 15.08858485 37115","EPHEMERIS_TYPE":"0","SITE":"AFETR","OBJECT_TYPE":"PAYLOAD","ECCENTRICITY":"0.00012310","EPOCH":"2023-05-02T19:00:22.161024","APOAPSIS":"540.540","PERIAPSIS":"538.837","FILE":"3899277","ELEMENT_SET_NO":"999","INCLINATION":"53.2156","REV_AT_EPOCH":"3711","TLE_LINE1":"1 53722U 22107Y   23122.79192316  .00009354  00000-0  60474-3 0  9994","CENTER_NAME":"EARTH","SEMIMAJOR_AXIS":"6917.824","TIME_SYSTEM":"UTC"},{"OBJECT_NAME":"STARLINK-4705","MEAN_MOTION_DDOT":"0.0000000000000","MEAN_MOTION":"15.08855574","OBJECT_ID":"2022-107Z","RCS_SIZE":"LARGE","MEAN_MOTION_DOT":"0.00006590","TLE_LINE2":"2 53723  53.2151 251.5975 0001085  89.0760 271.0356 15.08855574 37256","SITE":"AFETR","EPHEMERIS_TYPE":"0","GP_ID":"231124324","ARG_OF_PERICENTER":"89.0760","COUNTRY_CODE":"US","MEAN_ANOMALY":"271.0356","LAUNCH_DATE":"2022-09-05","DECAY_DATE":null,"RA_OF_ASC_NODE":"251.5975","PERIOD":"95.437","REF_FRAME":"TEME","MEAN_ELEMENT_THEORY":"SGP4","BSTAR":"0.00043156000000","NORAD_CAT_ID":"53723","CLASSIFICATION_TYPE":"U","PERIAPSIS":"538.947","EPOCH":"2023-05-02T17:26:21.814368","APOAPSIS":"540.448","OBJECT_TYPE":"PAYLOAD","ECCENTRICITY":"0.00010850","SEMIMAJOR_AXIS":"6917.833","CENTER_NAME":"EARTH","TIME_SYSTEM":"UTC","TLE_LINE1":"1 53723U 22107Z   23122.72664137  .00006590  00000-0  43156-3 0  9990","FILE":"3899277","REV_AT_EPOCH":"3725","INCLINATION":"53.2151","ELEMENT_SET_NO":"999"},{"EPOCH":"2023-05-02T18:44:27.065184","APOAPSIS":"540.171","PERIAPSIS":"539.198","OBJECT_TYPE":"PAYLOAD","ECCENTRICITY":"0.00007030","SEMIMAJOR_AXIS":"6917.820","CENTER_NAME":"EARTH","TIME_SYSTEM":"UTC","FILE":"3899277","INCLINATION":"53.2169","REV_AT_EPOCH":"3712","ELEMENT_SET_NO":"999","TLE_LINE1":"1 53724U 22107AA  23122.78086881  .00008508  00000-0  55166-3 0  9996","MEAN_MOTION":"15.08859826","OBJECT_ID":"2022-107AA","OBJECT_NAME":"STARLINK-4663","MEAN_MOTION_DDOT":"0.0000000000000","RCS_SIZE":"LARGE","MEAN_MOTION_DOT":"0.00008508","ARG_OF_PERICENTER":"84.1255","GP_ID":"231124573","SITE":"AFETR","TLE_LINE2":"2 53724  53.2169 251.2302 0000703  84.1255 275.9817 15.08859826 37123","EPHEMERIS_TYPE":"0","REF_FRAME":"TEME","MEAN_ELEMENT_THEORY":"SGP4","BSTAR":"0.00055166000000","NORAD_CAT_ID":"53724","CLASSIFICATION_TYPE":"U","COUNTRY_CODE":"US","MEAN_ANOMALY":"275.9817","PERIOD":"95.436","DECAY_DATE":null,"LAUNCH_DATE":"2022-09-05","RA_OF_ASC_NODE":"251.2302"},{"OBJECT_TYPE":"PAYLOAD","ECCENTRICITY":"0.00007720","PERIAPSIS":"539.159","EPOCH":"2023-05-02T18:55:03.524736","APOAPSIS":"540.227","TLE_LINE1":"1 53726U 22107AC  23122.78823524  .00005432  00000-0  35895-3 0  9991","FILE":"3899277","ELEMENT_SET_NO":"999","REV_AT_EPOCH":"3712","INCLINATION":"53.2146","CENTER_NAME":"EARTH","SEMIMAJOR_AXIS":"6917.828","TIME_SYSTEM":"UTC","MEAN_MOTION_DOT":"0.00005432","RCS_SIZE":"LARGE","OBJECT_NAME":"STARLINK-4697","MEAN_MOTION_DDOT":"0.0000000000000","OBJECT_ID":"2022-107AC","MEAN_MOTION":"15.08857065","COUNTRY_CODE":"US","DECAY_DATE":null,"RA_OF_ASC_NODE":"251.2729","LAUNCH_DATE":"2022-09-05","PERIOD":"95.436","MEAN_ANOMALY":"264.3351","MEAN_ELEMENT_THEORY":"SGP4","BSTAR":"0.00035895000000","REF_FRAME":"TEME","NORAD_CAT_ID":"53726","CLASSIFICATION_TYPE":"U","TLE_LINE2":"2 53726  53.2146 251.2729 0000772  95.7730 264.3351 15.08857065 37123","EPHEMERIS_TYPE":"0","SITE":"AFETR","ARG_OF_PERICENTER":"95.7730","GP_ID":"231124824"},{"MEAN_ELEMENT_THEORY":"SGP4","BSTAR":"0.00072115000000","REF_FRAME":"TEME","CLASSIFICATION_TYPE":"U","NORAD_CAT_ID":"53727","COUNTRY_CODE":"US","PERIOD":"95.436","DECAY_DATE":null,"LAUNCH_DATE":"2022-09-05","RA_OF_ASC_NODE":"251.3412","MEAN_ANOMALY":"267.5287","GP_ID":"231125568","ARG_OF_PERICENTER":"92.5758","TLE_LINE2":"2 53727  53.2153 251.3412 0000464  92.5758 267.5287 15.08861169 37263","SITE":"AFETR","EPHEMERIS_TYPE":"0","MEAN_MOTION_DOT":"0.00011215","RCS_SIZE":"LARGE","OBJECT_ID":"2022-107AD","MEAN_MOTION":"15.08861169","OBJECT_NAME":"STARLINK-4701","MEAN_MOTION_DDOT":"0.0000000000000","FILE":"3899277","ELEMENT_SET_NO":"999","INCLINATION":"53.2153","REV_AT_EPOCH":"3726","TLE_LINE1":"1 53727U 22107AD  23122.79928880  .00011215  00000-0  72115-3 0  9996","CENTER_NAME":"EARTH","SEMIMAJOR_AXIS":"6917.816","TIME_SYSTEM":"UTC","OBJECT_TYPE":"PAYLOAD","ECCENTRICITY":"0.00004640","EPOCH":"2023-05-02T19:10:58.552320","APOAPSIS":"540.002","PERIAPSIS":"539.360"},{"APOAPSIS":"539.895","EPOCH":"2023-05-02T19:05:40.470720","PERIAPSIS":"539.500","ECCENTRICITY":"0.00002860","OBJECT_TYPE":"PAYLOAD","TIME_SYSTEM":"UTC","SEMIMAJOR_AXIS":"6917.833","CENTER_NAME":"EARTH","REV_AT_EPOCH":"3726","INCLINATION":"53.2145","ELEMENT_SET_NO":"999","FILE":"3899277","TLE_LINE1":"1 53728U 22107AE  23122.79560730  .00006145  00000-0  40366-3 0  9992","MEAN_MOTION":"15.08855658","OBJECT_ID":"2022-107AE","MEAN_MOTION_DDOT":"0.0000000000000","OBJECT_NAME":"STARLINK-4640","MEAN_MOTION_DOT":"0.00006145","RCS_SIZE":"LARGE","ARG_OF_PERICENTER":"88.0753","GP_ID":"231123824","TLE_LINE2":"2 53728  53.2145 251.3187 0000286  88.0753 272.0272 15.08855658 37262","EPHEMERIS_TYPE":"0","SITE":"AFETR","CLASSIFICATION_TYPE":"U","NORAD_CAT_ID":"53728","REF_FRAME":"TEME","BSTAR":"0.00040366000000","MEAN_ELEMENT_THEORY":"SGP4","MEAN_ANOMALY":"272.0272","LAUNCH_DATE":"2022-09-05","DECAY_DATE":null,"PERIOD":"95.437","RA_OF_ASC_NODE":"251.3187","COUNTRY_CODE":"US"},{"FILE":"3899277","ELEMENT_SET_NO":"999","REV_AT_EPOCH":"3729","INCLINATION":"53.2146","TLE_LINE1":"1 53729U 22107AF  23122.81034568  .00003815  00000-0  25752-3 0  9994","CENTER_NAME":"EARTH","SEMIMAJOR_AXIS":"6917.827","TIME_SYSTEM":"UTC","OBJECT_TYPE":"PAYLOAD","ECCENTRICITY":"0.00008620","EPOCH":"2023-05-02T19:26:53.866752","APOAPSIS":"540.289","PERIAPSIS":"539.096","BSTAR":"0.00025752000000","MEAN_ELEMENT_THEORY":"SGP4","REF_FRAME":"TEME","NORAD_CAT_ID":"53729","CLASSIFICATION_TYPE":"U","COUNTRY_CODE":"US","DECAY_DATE":null,"LAUNCH_DATE":"2022-09-05","PERIOD":"95.436","RA_OF_ASC_NODE":"251.4106","MEAN_ANOMALY":"274.1495","ARG_OF_PERICENTER":"85.9596","GP_ID":"231124074","TLE_LINE2":"2 53729  53.2146 251.4106 0000862  85.9596 274.1495 15.08857308 37294","SITE":"AFETR","EPHEMERIS_TYPE":"0","RCS_SIZE":"LARGE","MEAN_MOTION_DOT":"0.00003815","OBJECT_ID":"2022-107AF","MEAN_MOTION":"15.08857308","OBJECT_NAME":"STARLINK-4651","MEAN_MOTION_DDOT":"0.0000000000000"},{"ECCENTRICITY":"0.00004350","OBJECT_TYPE":"PAYLOAD","PERIAPSIS":"539.440","APOAPSIS":"540.041","EPOCH":"2023-05-02T16:05:31.286400","TLE_LINE1":"1 53730U 22107AG  23122.67050100 -.00000198  00000-0  56473-5 0  9998","ELEMENT_SET_NO":"999","INCLINATION":"53.2160","REV_AT_EPOCH":"3724","FILE":"3899277","TIME_SYSTEM":"UTC","CENTER_NAME":"EARTH","SEMIMAJOR_AXIS":"6917.875","MEAN_MOTION_DOT":"-0.00000198","RCS_SIZE":"LARGE","MEAN_MOTION_DDOT":"0.0000000000000","OBJECT_NAME":"STARLINK-4641","OBJECT_ID":"2022-107AG","MEAN_MOTION":"15.08841620","PERIOD":"95.437","DECAY_DATE":null,"LAUNCH_DATE":"2022-09-05","RA_OF_ASC_NODE":"251.9589","MEAN_ANOMALY":"232.5614","COUNTRY_CODE":"US","NORAD_CAT_ID":"53730","CLASSIFICATION_TYPE":"U","BSTAR":"0.00000564730000","MEAN_ELEMENT_THEORY":"SGP4","REF_FRAME":"TEME","TLE_LINE2":"2 53730  53.2160 251.9589 0000435 127.5417 232.5614 15.08841620 37249","EPHEMERIS_TYPE":"0","SITE":"AFETR","GP_ID":"231125325","ARG_OF_PERICENTER":"127.5417"},{"TLE_LINE1":"1 53731U 22107AH  23122.74781737  .00000493  00000-0  49083-4 0  9999","FILE":"3899277","ELEMENT_SET_NO":"999","INCLINATION":"53.2151","REV_AT_EPOCH":"3728","CENTER_NAME":"EARTH","SEMIMAJOR_AXIS":"6917.924","TIME_SYSTEM":"UTC","OBJECT_TYPE":"PAYLOAD","ECCENTRICITY":"0.00015090","PERIAPSIS":"538.745","EPOCH":"2023-05-02T17:56:51.420768","APOAPSIS":"540.833","COUNTRY_CODE":"US","DECAY_DATE":null,"RA_OF_ASC_NODE":"251.7317","LAUNCH_DATE":"2022-09-05","PERIOD":"95.438","MEAN_ANOMALY":"281.1570","BSTAR":"0.00004908300000","MEAN_ELEMENT_THEORY":"SGP4","REF_FRAME":"TEME","CLASSIFICATION_TYPE":"U","NORAD_CAT_ID":"53731","TLE_LINE2":"2 53731  53.2151 251.7317 0001509  78.9592 281.1570 15.08825821 37283","EPHEMERIS_TYPE":"0","SITE":"AFETR","GP_ID":"231125068","ARG_OF_PERICENTER":"78.9592","RCS_SIZE":"LARGE","MEAN_MOTION_DOT":"0.00000493","OBJECT_NAME":"STARLINK-4636","MEAN_MOTION_DDOT":"0.0000000000000","OBJECT_ID":"2022-107AH","MEAN_MOTION":"15.08825821"},{"APOAPSIS":"540.494","EPOCH":"2023-05-02T17:47:35.296800","PERIAPSIS":"538.852","ECCENTRICITY":"0.00011870","OBJECT_TYPE":"PAYLOAD","TIME_SYSTEM":"UTC","SEMIMAJOR_AXIS":"6917.808","CENTER_NAME":"EARTH","REV_AT_EPOCH":"3725","INCLINATION":"53.2148","ELEMENT_SET_NO":"999","FILE":"3899277","TLE_LINE1":"1 53732U 22107AJ  23122.74138075  .00011555  00000-0  74240-3 0  9994","MEAN_MOTION":"15.08863639","OBJECT_ID":"2022-107AJ","MEAN_MOTION_DDOT":"0.0000000000000","OBJECT_NAME":"STARLINK-4661","MEAN_MOTION_DOT":"0.00011555","RCS_SIZE":"LARGE","GP_ID":"231124325","ARG_OF_PERICENTER":"85.8374","TLE_LINE2":"2 53732  53.2148 251.6882 0001187  85.8374 274.2754 15.08863639 37256","EPHEMERIS_TYPE":"0","SITE":"AFETR","NORAD_CAT_ID":"53732","CLASSIFICATION_TYPE":"U","REF_FRAME":"TEME","BSTAR":"0.00074240000000","MEAN_ELEMENT_THEORY":"SGP4","MEAN_ANOMALY":"274.2754","LAUNCH_DATE":"2022-09-05","DECAY_DATE":null,"PERIOD":"95.436","RA_OF_ASC_NODE":"251.6882","COUNTRY_CODE":"US"}];
